H1 CPF  1  HTS 2022  6 18 12  6691 larets           NONE
H2  0304206 5557    27944 2022 06 18  0  0  0 2022 06 23  0  0  0   180 1 1  0 0 0
H5  0.0560 
H9 
10 0 59748  47880.00000  0    1792884.937    1377518.818    6690041.867
10 0 59748  48060.00000  0    3048875.551    1530827.552    6183783.310
10 0 59748  48240.00000  0    4197237.190    1597086.382    5451752.336
10 0 59748  48420.00000  0    5193951.484    1577251.471    4520518.443
10 0 59748  48600.00000  0    6000500.505    1476478.367    3423963.580
10 0 59748  48780.00000  0    6585409.404    1303786.389    2202085.464
10 0 59748  48960.00000  0    6925534.875    1071540.916     899552.972
10 0 59748  49140.00000  0    7007038.969     794778.635    -435939.743
10 0 59748  49320.00000  0    6825989.459     490406.769   -1755456.785
10 0 59748  49500.00000  0    6388546.394     176316.141   -3010661.811
10 0 59748  49680.00000  0    5710729.059    -129544.372   -4155629.931
10 0 59748  49860.00000  0    4817776.797    -410081.028   -5148553.110
10 0 59748  50040.00000  0    3743141.115    -649907.891   -5953261.758
10 0 59748  50220.00000  0    2527173.415    -836099.992   -6540512.583
10 0 59748  50400.00000  0    1215566.231    -958814.251   -6889006.139
10 0 59748  50580.00000  0    -142380.286   -1011752.601   -6986110.672
10 0 59748  50760.00000  0   -1495605.899    -992452.215   -6828287.176
10 0 59748  50940.00000  0   -2793192.570    -902392.967   -6421210.109
10 0 59748  51120.00000  0   -3986263.163    -746918.768   -5779580.410
10 0 59748  51300.00000  0   -5029819.968    -534976.347   -4926640.241
10 0 59748  51480.00000  0   -5884470.119    -278678.829   -3893385.732
10 0 59748  51660.00000  0   -6517967.692       7290.246   -2717488.350
10 0 59748  51840.00000  0   -6906503.751     306411.361   -1441945.504
10 0 59748  52020.00000  0   -7035676.129     601169.301    -113501.582
10 0 59748  52200.00000  0   -6901075.385     873956.480    1219105.523
10 0 59748  52380.00000  0   -6508450.710    1107991.639    2506983.597
10 0 59748  52560.00000  0   -5873452.655    1288204.604    3702933.751
10 0 59748  52740.00000  0   -5020958.957    1402038.954    4763220.274
10 0 59748  52920.00000  0   -3984029.460    1440131.040    5649178.099
10 0 59748  53100.00000  0   -2802557.762    1396833.756    6328600.291
10 0 59748  53280.00000  0   -1521685.092    1270564.460    6776869.148
10 0 59748  53460.00000  0    -190042.502    1063963.709    6977795.130
10 0 59748  53640.00000  0    1142097.358     783859.578    6924150.138
10 0 59748  53820.00000  0    2424698.852     441041.363    6617901.379
10 0 59748  54000.00000  0    3609821.039      49849.935    6070144.152
10 0 59748  54180.00000  0    4653402.210    -372404.746    5300731.609
10 0 59748  54360.00000  0    5516911.805    -806181.071    4337601.549
10 0 59748  54540.00000  0    6168811.803   -1230572.092    3215811.369
10 0 59748  54720.00000  0    6585768.246   -1624267.089    1976296.970
10 0 59748  54900.00000  0    6753550.067   -1966564.120     664388.175
10 0 59748  55080.00000  0    6667566.564   -2238386.466    -671865.710
10 0 59748  55260.00000  0    6333007.335   -2423249.162   -1983497.060
10 0 59748  55440.00000  0    5764570.885   -2508121.707   -3222463.628
10 0 59748  55620.00000  0    4985797.448   -2484140.910   -4343447.422
10 0 59748  55800.00000  0    4028049.986   -2347139.154   -5305530.348
10 0 59748  55980.00000  0    2929195.634   -2097964.433   -6073680.849
10 0 59748  56160.00000  0    1732061.622   -1742578.378   -6619993.362
10 0 59748  56340.00000  0     482741.299   -1291931.976   -6924657.789
10 0 59748  56520.00000  0    -771188.152    -761625.532   -6976631.853
10 0 59748  56700.00000  0   -1982465.634    -171369.043   -6774010.284
10 0 59748  56880.00000  0   -3105910.403     455743.237   -6324089.788
10 0 59748  57060.00000  0   -4100094.408    1094121.785   -5643129.050
10 0 59748  57240.00000  0   -4928878.600    1716707.208   -4755810.349
10 0 59748  57420.00000  0   -5562763.402    2296102.044   -3694400.308
10 0 59748  57600.00000  0   -5979993.365    2805765.346   -2497618.021
10 0 59748  57780.00000  0   -6167364.970    3221213.565   -1209242.349
10 0 59748  57960.00000  0   -6120693.581    3521173.346     123500.860
10 0 59748  58140.00000  0   -5844905.284    3688623.326    1451710.750
10 0 59748  58320.00000  0   -5353739.046    3711665.010    2726663.184
10 0 59748  58500.00000  0   -4669075.978    3584176.532    3901649.192
10 0 59748  58680.00000  0   -3819939.181    3306215.788    4933719.424
10 0 59748  58860.00000  0   -2841220.411    2884155.380    5785257.902
10 0 59748  59040.00000  0   -1772203.401    2330551.555    6425329.413
10 0 59748  59220.00000  0    -654954.087    1663753.925    6830757.027
10 0 59748  59400.00000  0     467344.396     907278.282    6986903.250
10 0 59748  59580.00000  0    1552048.623      88970.245    6888153.969
10 0 59748  59760.00000  0    2558655.820    -760012.804    6538100.734
10 0 59748  59940.00000  0    3450300.797   -1606374.074    5949421.416
10 0 59748  60120.00000  0    4195107.167   -2415968.836    5143456.543
10 0 59748  60300.00000  0    4767345.665   -3155173.160    4149482.983
10 0 59748  60480.00000  0    5148358.314   -3792282.426    3003699.554
10 0 59748  60660.00000  0    5327209.204   -4298881.001    1747938.130
10 0 59748  60840.00000  0    5301020.888   -4651115.424     428139.051
10 0 59748  61020.00000  0    5074977.504   -4830808.435    -907350.584
10 0 59748  61200.00000  0    4661990.476   -4826352.341   -2209589.482
10 0 59748  61380.00000  0    4082038.839   -4633329.704   -3430884.394
10 0 59748  61560.00000  0    3361219.856   -4254829.643   -4526574.978
10 0 59748  61740.00000  0    2530563.452   -3701445.677   -5456683.333
10 0 59748  61920.00000  0    1624673.858   -2990960.494   -6187357.945
10 0 59748  62100.00000  0     680273.571   -2147745.097   -6692066.705
10 0 59748  62280.00000  0    -265291.017   -1201897.035   -6952516.206
10 0 59748  62460.00000  0   -1175519.935    -188150.873   -6959268.769
10 0 59748  62640.00000  0   -2016152.943     855392.969   -6712056.224
10 0 59748  62820.00000  0   -2756446.729    1888683.638   -6219790.183
10 0 59748  63000.00000  0   -3370294.918    2871239.603   -5500270.737
10 0 59748  63180.00000  0   -3837162.629    3763730.037   -4579595.467
10 0 59748  63360.00000  0   -4142802.430    4529563.956   -3491264.235
10 0 59748  63540.00000  0   -4279711.983    5136418.148   -2274995.870
10 0 59748  63720.00000  0   -4247314.594    5557635.314    -975294.911
10 0 59748  63900.00000  0   -4051852.096    5773425.747     360191.047
10 0 59748  64080.00000  0   -3705983.266    5771800.003    1682461.484
10 0 59748  64260.00000  0   -3228107.432    5549180.042    2943018.831
10 0 59748  64440.00000  0   -2641442.558    5110649.195    4095701.380
10 0 59748  64620.00000  0   -1972916.212    4469835.200    5098398.976
10 0 59748  64800.00000  0   -1251933.878    3648443.668    5914589.272
10 0 59748  64980.00000  0    -509085.175    2675467.634    6514638.587
10 0 59748  65160.00000  0     225148.014    1586117.684    6876826.367
10 0 59748  65340.00000  0     921628.717     420524.548    6988078.584
10 0 59748  65520.00000  0    1553705.589    -777740.236    6844399.394
10 0 59748  65700.00000  0    2098218.887   -1963277.578    6451001.686
10 0 59748  65880.00000  0    2536343.222   -3090564.088    5822133.630
10 0 59748  66060.00000  0    2854242.260   -4115693.221    4980600.423
10 0 59748  66240.00000  0    3043511.695   -4998094.343    3956985.058
10 0 59748  66420.00000  0    3101396.415   -5702167.749    2788581.602
10 0 59748  66600.00000  0    3030767.893   -6198765.114    1518061.937
10 0 59748  66780.00000  0    2839857.099   -6466440.499     191917.526
10 0 59748  66960.00000  0    2541757.694   -6492408.820   -1141263.436
10 0 59748  67140.00000  0    2153717.100   -6273157.689   -2432622.613
10 0 59748  67320.00000  0    1696248.596   -5814669.602   -3634872.251
10 0 59748  67500.00000  0    1192112.430   -5132242.655   -4704064.850
10 0 59748  67680.00000  0     665229.585   -4249924.784   -5601207.325
10 0 59748  67860.00000  0     139582.022   -3199606.260   -6293664.026
10 0 59748  68040.00000  0    -361850.882   -2019814.850   -6756303.870
10 0 59748  68220.00000  0    -818072.573    -754270.829   -6972362.582
10 0 59748  68400.00000  0   -1210928.153     549740.742   -6934008.225
10 0 59748  68580.00000  0   -1525814.192    1843124.635   -6642601.785
10 0 59748  68760.00000  0   -1752217.603    3076801.998   -6108654.627
10 0 59748  68940.00000  0   -1884068.376    4203560.350   -5351486.069
10 0 59748  69120.00000  0   -1919895.327    5179871.699   -4398576.445
10 0 59748  69300.00000  0   -1862778.189    5967611.893   -3284618.836
10 0 59748  69480.00000  0   -1720092.700    6535603.846   -2050287.857
10 0 59748  69660.00000  0   -1503058.466    6860915.460    -740764.180
10 0 59748  69840.00000  0   -1226109.398    6929843.204     595938.147
10 0 59748  70020.00000  0    -906114.997    6738527.751    1910776.696
10 0 59748  70200.00000  0    -561492.747    6293148.880    3155542.876
10 0 59748  70380.00000  0    -211261.319    5609690.734    4284673.171
10 0 59748  70560.00000  0     125911.887    4713312.691    5256938.989
10 0 59748  70740.00000  0     432625.140    3637346.354    6036949.168
10 0 59748  70920.00000  0     693571.980    2421991.089    6596398.659
10 0 59748  71100.00000  0     896247.124    1112768.516    6915046.339
10 0 59748  71280.00000  0    1031503.885    -241200.750    6981395.376
10 0 59748  71460.00000  0    1093944.225   -1589031.159    6793072.109
10 0 59748  71640.00000  0    1082128.736   -2879966.261    6356904.962
10 0 59748  71820.00000  0     998599.726   -4065277.604    5688695.171
10 0 59748  72000.00000  0     849716.785   -5100102.571    4812678.571
10 0 59748  72180.00000  0     645315.280   -5945159.643    3760697.666
99
